[{"OBJECT_NAME":"FENGYUN 1C DEB","OBJECT_ID":"1999-025CEJ","EPOCH":"2026-04-25T17:50:19.436064","MEAN_MOTION":14.43365687,"ECCENTRICITY":0.0058147,"INCLINATION":98.5797,"RA_OF_ASC_NODE":224.9536,"ARG_OF_PERICENTER":239.3092,"MEAN_ANOMALY":120.236,"EPHEMERIS_TYPE":0,"CLASSIFICATION_TYPE":"U","NORAD_CAT_ID":31735,"ELEMENT_SET_NO":999,"REV_AT_EPOCH":98597,"BSTAR":0.00093999,"MEAN_MOTION_DOT":3.191e-5,"MEAN_MOTION_DDOT":0},{"OBJECT_NAME":"FENGYUN 1C DEB","OBJECT_ID":"1999-025CEK","EPOCH":"2026-04-25T06:33:50.336064","MEAN_MOTION":14.14271263,"ECCENTRICITY":0.0011203,"INCLINATION":98.6816,"RA_OF_ASC_NODE":118.4058,"ARG_OF_PERICENTER":217.0189,"MEAN_ANOMALY":143.0212,"EPHEMERIS_TYPE":0,"CLASSIFICATION_TYPE":"U","NORAD_CAT_ID":31736,"ELEMENT_SET_NO":999,"REV_AT_EPOCH":65952,"BSTAR":0.00011962,"MEAN_MOTION_DOT":1.86e-6,"MEAN_MOTION_DDOT":0},{"OBJECT_NAME":"FENGYUN 1C DEB","OBJECT_ID":"1999-025CEL","EPOCH":"2026-04-25T13:22:07.646016","MEAN_MOTION":14.69902678,"ECCENTRICITY":0.0144379,"INCLINATION":97.8981,"RA_OF_ASC_NODE":149.9068,"ARG_OF_PERICENTER":308.4914,"MEAN_ANOMALY":209.7365,"EPHEMERIS_TYPE":0,"CLASSIFICATION_TYPE":"U","NORAD_CAT_ID":31737,"ELEMENT_SET_NO":999,"REV_AT_EPOCH":165,"BSTAR":0.00032132,"MEAN_MOTION_DOT":2.2e-5,"MEAN_MOTION_DDOT":0},{"OBJECT_NAME":"FENGYUN 1C DEB","OBJECT_ID":"1999-025CEM","EPOCH":"2026-04-22T22:26:01.534272","MEAN_MOTION":13.85687743,"ECCENTRICITY":0.03075385,"INCLINATION":99.3441,"RA_OF_ASC_NODE":185.0806,"ARG_OF_PERICENTER":109.8244,"MEAN_ANOMALY":253.6338,"EPHEMERIS_TYPE":0,"CLASSIFICATION_TYPE":"U","NORAD_CAT_ID":31738,"ELEMENT_SET_NO":999,"REV_AT_EPOCH":64074,"BSTAR":0.00090132751,"MEAN_MOTION_DOT":1.451e-5,"MEAN_MOTION_DDOT":0},{"OBJECT_NAME":"FENGYUN 1C DEB","OBJECT_ID":"1999-025CEN","EPOCH":"2026-04-25T02:36:34.350624","MEAN_MOTION":14.19285703,"ECCENTRICITY":0.01281705,"INCLINATION":98.7226,"RA_OF_ASC_NODE":173.6118,"ARG_OF_PERICENTER":54.892,"MEAN_ANOMALY":306.4193,"EPHEMERIS_TYPE":0,"CLASSIFICATION_TYPE":"U","NORAD_CAT_ID":31739,"ELEMENT_SET_NO":999,"REV_AT_EPOCH":97378,"BSTAR":6.6129714e-5,"MEAN_MOTION_DOT":1.08e-6,"MEAN_MOTION_DDOT":0},{"OBJECT_NAME":"FENGYUN 1C DEB","OBJECT_ID":"1999-025CEP","EPOCH":"2026-04-19T07:11:08.721600","MEAN_MOTION":14.43345818,"ECCENTRICITY":0.00248993,"INCLINATION":99.8265,"RA_OF_ASC_NODE":304.9388,"ARG_OF_PERICENTER":62.1312,"MEAN_ANOMALY":117.2451,"EPHEMERIS_TYPE":0,"CLASSIFICATION_TYPE":"U","NORAD_CAT_ID":31740,"ELEMENT_SET_NO":999,"REV_AT_EPOCH":66914,"BSTAR":0.00078457519,"MEAN_MOTION_DOT":2.6e-5,"MEAN_MOTION_DDOT":0},{"OBJECT_NAME":"FENGYUN 1C DEB","OBJECT_ID":"1999-025CER","EPOCH":"2026-04-25T09:22:20.667936","MEAN_MOTION":14.40353929,"ECCENTRICITY":0.0074662,"INCLINATION":98.9064,"RA_OF_ASC_NODE":345.6816,"ARG_OF_PERICENTER":293.9446,"MEAN_ANOMALY":65.3934,"EPHEMERIS_TYPE":0,"CLASSIFICATION_TYPE":"U","NORAD_CAT_ID":31742,"ELEMENT_SET_NO":999,"REV_AT_EPOCH":98573,"BSTAR":0.0004102,"MEAN_MOTION_DOT":1.295e-5,"MEAN_MOTION_DDOT":0},{"OBJECT_NAME":"FENGYUN 1C DEB","OBJECT_ID":"1999-025CES","EPOCH":"2026-04-25T02:11:00.998592","MEAN_MOTION":14.32555876,"ECCENTRICITY":0.00378994,"INCLINATION":99.1506,"RA_OF_ASC_NODE":55.1455,"ARG_OF_PERICENTER":189.2907,"MEAN_ANOMALY":192.5987,"EPHEMERIS_TYPE":0,"CLASSIFICATION_TYPE":"U","NORAD_CAT_ID":31743,"ELEMENT_SET_NO":999,"REV_AT_EPOCH":97549,"BSTAR":0.0010769351,"MEAN_MOTION_DOT":2.897e-5,"MEAN_MOTION_DDOT":0},{"OBJECT_NAME":"FENGYUN 1C DEB","OBJECT_ID":"1999-025CET","EPOCH":"2026-04-25T13:56:34.175904","MEAN_MOTION":14.19077501,"ECCENTRICITY":0.030752,"INCLINATION":99.3098,"RA_OF_ASC_NODE":238.1506,"ARG_OF_PERICENTER":26.6416,"MEAN_ANOMALY":335.0196,"EPHEMERIS_TYPE":0,"CLASSIFICATION_TYPE":"U","NORAD_CAT_ID":31744,"ELEMENT_SET_NO":999,"REV_AT_EPOCH":96511,"BSTAR":0.0012027,"MEAN_MOTION_DOT":3.979e-5,"MEAN_MOTION_DDOT":0},{"OBJECT_NAME":"FENGYUN 1C DEB","OBJECT_ID":"1999-025CEV","EPOCH":"2026-04-24T07:41:54.332736","MEAN_MOTION":14.85138792,"ECCENTRICITY":0.00213253,"INCLINATION":98.5939,"RA_OF_ASC_NODE":251.2885,"ARG_OF_PERICENTER":144.9783,"MEAN_ANOMALY":215.2837,"EPHEMERIS_TYPE":0,"CLASSIFICATION_TYPE":"U","NORAD_CAT_ID":31746,"ELEMENT_SET_NO":999,"REV_AT_EPOCH":98990,"BSTAR":0.0027569803,"MEAN_MOTION_DOT":0.00023701,"MEAN_MOTION_DDOT":0},{"OBJECT_NAME":"FENGYUN 1C DEB","OBJECT_ID":"1999-025CFB","EPOCH":"2026-04-24T11:04:06.682944","MEAN_MOTION":13.94013877,"ECCENTRICITY":0.03518764,"INCLINATION":98.9593,"RA_OF_ASC_NODE":188.603,"ARG_OF_PERICENTER":329.7908,"MEAN_ANOMALY":28.3372,"EPHEMERIS_TYPE":0,"CLASSIFICATION_TYPE":"U","NORAD_CAT_ID":31752,"ELEMENT_SET_NO":999,"REV_AT_EPOCH":95439,"BSTAR":0.00062782055,"MEAN_MOTION_DOT":1.34e-5,"MEAN_MOTION_DDOT":0},{"OBJECT_NAME":"FENGYUN 1C DEB","OBJECT_ID":"1999-025CFC","EPOCH":"2026-04-24T00:57:32.133600","MEAN_MOTION":14.18808175,"ECCENTRICITY":0.01595607,"INCLINATION":98.6131,"RA_OF_ASC_NODE":148.5939,"ARG_OF_PERICENTER":152.3196,"MEAN_ANOMALY":239.3151,"EPHEMERIS_TYPE":0,"CLASSIFICATION_TYPE":"U","NORAD_CAT_ID":31753,"ELEMENT_SET_NO":999,"REV_AT_EPOCH":97895,"BSTAR":0.00014724413,"MEAN_MOTION_DOT":3.06e-6,"MEAN_MOTION_DDOT":0},{"OBJECT_NAME":"FENGYUN 1C DEB","OBJECT_ID":"1999-025CFD","EPOCH":"2026-04-25T05:00:11.002752","MEAN_MOTION":14.43272926,"ECCENTRICITY":0.00489809,"INCLINATION":99.0533,"RA_OF_ASC_NODE":93.6045,"ARG_OF_PERICENTER":181.5176,"MEAN_ANOMALY":178.5871,"EPHEMERIS_TYPE":0,"CLASSIFICATION_TYPE":"U","NORAD_CAT_ID":31754,"ELEMENT_SET_NO":999,"REV_AT_EPOCH":98914,"BSTAR":0.0006558952,"MEAN_MOTION_DOT":2.191e-5,"MEAN_MOTION_DDOT":0},{"OBJECT_NAME":"FENGYUN 1C DEB","OBJECT_ID":"1999-025CFE","EPOCH":"2026-04-25T05:47:55.618944","MEAN_MOTION":14.08506208,"ECCENTRICITY":0.0188803,"INCLINATION":98.7946,"RA_OF_ASC_NODE":108.8605,"ARG_OF_PERICENTER":5.7144,"MEAN_ANOMALY":11.949,"EPHEMERIS_TYPE":0,"CLASSIFICATION_TYPE":"U","NORAD_CAT_ID":31755,"ELEMENT_SET_NO":999,"REV_AT_EPOCH":65551,"BSTAR":0.00032403,"MEAN_MOTION_DOT":6.12e-6,"MEAN_MOTION_DDOT":0},{"OBJECT_NAME":"FENGYUN 1C DEB","OBJECT_ID":"1999-025CFG","EPOCH":"2026-04-17T06:38:50.497440","MEAN_MOTION":14.08054488,"ECCENTRICITY":0.02181578,"INCLINATION":98.755,"RA_OF_ASC_NODE":130.7936,"ARG_OF_PERICENTER":89.7159,"MEAN_ANOMALY":272.9006,"EPHEMERIS_TYPE":0,"CLASSIFICATION_TYPE":"U","NORAD_CAT_ID":31757,"ELEMENT_SET_NO":999,"REV_AT_EPOCH":65648,"BSTAR":0.00023803709,"MEAN_MOTION_DOT":4.63e-6,"MEAN_MOTION_DDOT":0},{"OBJECT_NAME":"FENGYUN 1C DEB","OBJECT_ID":"1999-025CFH","EPOCH":"2026-04-24T11:17:29.575680","MEAN_MOTION":14.46143254,"ECCENTRICITY":0.03042126,"INCLINATION":98.0573,"RA_OF_ASC_NODE":121.8813,"ARG_OF_PERICENTER":44.6298,"MEAN_ANOMALY":317.8955,"EPHEMERIS_TYPE":0,"CLASSIFICATION_TYPE":"U","NORAD_CAT_ID":31758,"ELEMENT_SET_NO":999,"REV_AT_EPOCH":96116,"BSTAR":0.0022630043,"MEAN_MOTION_DOT":0.00014405,"MEAN_MOTION_DDOT":0}]
