FENGYUN 1C DEB          
1 31735U 99025CEJ 26115.74328051  .00003191  00000+0  93999-3 0  9994
2 31735  98.5797 224.9536 0058147 239.3092 120.2360 14.43365687985979
FENGYUN 1C DEB          
1 31736U 99025CEK 26115.27349926  .00000186  00000+0  11962-3 0  9998
2 31736  98.6816 118.4058 0011203 217.0189 143.0212 14.14271263659523
FENGYUN 1C DEB          
1 31737U 99025CEL 26115.55703294  .00002200  00000+0  32132-3 0  9993
2 31737  97.8981 149.9068 0144379 308.4914 209.7365 14.69902678  1655
FENGYUN 1C DEB          
1 31738U 99025CEM 26112.93473998  .00001451  00000+0  90133-3 0  9990
2 31738  99.3441 185.0806 0307538 109.8244 253.6338 13.85687743640749
FENGYUN 1C DEB          
1 31739U 99025CEN 26115.10873091  .00000108  00000+0  66130-4 0  9990
2 31739  98.7226 173.6118 0128170  54.8920 306.4193 14.19285703973783
FENGYUN 1C DEB          
1 31740U 99025CEP 26109.29940650  .00002600  00000+0  78458-3 0  9995
2 31740  99.8265 304.9388 0024899  62.1312 117.2451 14.43345818669146
FENGYUN 1C DEB          
1 31742U 99025CER 26115.39051699  .00001295  00000+0  41020-3 0  9995
2 31742  98.9064 345.6816 0074662 293.9446  65.3934 14.40353929985732
FENGYUN 1C DEB          
1 31743U 99025CES 26115.09098378  .00002897  00000+0  10769-2 0  9992
2 31743  99.1506  55.1455 0037899 189.2907 192.5987 14.32555876975498
FENGYUN 1C DEB          
1 31744U 99025CET 26115.58095111  .00003979  00000+0  12027-2 0  9990
2 31744  99.3098 238.1506 0307520  26.6416 335.0196 14.19077501965110
FENGYUN 1C DEB          
1 31746U 99025CEV 26114.32076774  .00023701  00000+0  27570-2 0  9991
2 31746  98.5939 251.2885 0021325 144.9783 215.2837 14.85138792989907
FENGYUN 1C DEB          
1 31752U 99025CFB 26114.46118846  .00001340  00000+0  62782-3 0  9990
2 31752  98.9593 188.6030 0351876 329.7908  28.3372 13.94013877954395
FENGYUN 1C DEB          
1 31753U 99025CFC 26114.03995525  .00000306  00000+0  14724-3 0  9995
2 31753  98.6131 148.5939 0159560 152.3196 239.3151 14.18808175978956
FENGYUN 1C DEB          
1 31754U 99025CFD 26115.20846068  .00002191  00000+0  65590-3 0  9994
2 31754  99.0533  93.6045 0048980 181.5176 178.5871 14.43272926989144
FENGYUN 1C DEB          
1 31755U 99025CFE 26115.24161596  .00000612  00000+0  32403-3 0  9998
2 31755  98.7946 108.8605 0188803   5.7144  11.9490 14.08506208655513
FENGYUN 1C DEB          
1 31757U 99025CFG 26107.27697335  .00000463  00000+0  23804-3 0  9998
2 31757  98.7550 130.7936 0218157  89.7159 272.9006 14.08054488656488
FENGYUN 1C DEB          
1 31758U 99025CFH 26114.47048120  .00014405  00000+0  22630-2 0  9997
2 31758  98.0573 121.8813 0304212  44.6298 317.8955 14.46143254961162
